{
  "type": "FeatureCollection",
  "features": [
    {
      "type": "Feature",
      "properties": {
        "norad_id": 34641,
        "name": "COSMOS 2251 DEB",
        "group": "cosmos-2251-debris",
        "lat": 57.71451503384295,
        "lon": -153.17957074956408,
        "alt_km": 724.8349420209342,
        "timestamp": "2025-12-27T03:58:44.541717+00:00",
        "meta_object_name": "COSMOS 2251 DEB",
        "meta_object_id": "1993-036XN",
        "meta_epoch": "2025-12-26T14:54:30.263040",
        "meta_mean_motion": 14.5208918,
        "meta_eccentricity": 0.0019151,
        "meta_inclination": 73.8391,
        "meta_ra_of_asc_node": 55.1782,
        "meta_arg_of_pericenter": 328.0054,
        "meta_mean_anomaly": 184.3533,
        "meta_ephemeris_type": 0,
        "meta_classification_type": "U",
        "meta_norad_cat_id": 34641,
        "meta_element_set_no": 999,
        "meta_rev_at_epoch": 88457,
        "meta_bstar": 0.00070823,
        "meta_mean_motion_dot": 2.845e-05,
        "meta_mean_motion_ddot": 0,
        "tle_line1": "1 34641U 93036XN  25360.62118360  .00002845  00000+0  70823-3 0  9993",
        "tle_line2": "2 34641  73.8391  55.1782 0019151 328.0054 184.3533 14.52089180884575"
      },
      "geometry": {
        "type": "Point",
        "coordinates": [
          -153.17957074956408,
          57.71451503384295
        ]
      }
    },
    {
      "type": "Feature",
      "properties": {
        "norad_id": 34642,
        "name": "COSMOS 2251 DEB",
        "group": "cosmos-2251-debris",
        "lat": -30.45039345042118,
        "lon": -54.895163139153404,
        "alt_km": 1046.1099147846144,
        "timestamp": "2025-12-27T03:58:44.541726+00:00",
        "meta_object_name": "COSMOS 2251 DEB",
        "meta_object_id": "1993-036XP",
        "meta_epoch": "2025-12-26T08:15:27.972000",
        "meta_mean_motion": 13.99010447,
        "meta_eccentricity": 0.020642,
        "meta_inclination": 74.0043,
        "meta_ra_of_asc_node": 316.2358,
        "meta_arg_of_pericenter": 132.8171,
        "meta_mean_anomaly": 19.2317,
        "meta_ephemeris_type": 0,
        "meta_classification_type": "U",
        "meta_norad_cat_id": 34642,
        "meta_element_set_no": 999,
        "meta_rev_at_epoch": 85483,
        "meta_bstar": 0.00085901,
        "meta_mean_motion_dot": 1.468e-05,
        "meta_mean_motion_ddot": 0,
        "tle_line1": "1 34642U 93036XP  25360.34407375  .00001468  00000+0  85901-3 0  9993",
        "tle_line2": "2 34642  74.0043 316.2358 0206420 132.8171  19.2317 13.99010447854833"
      },
      "geometry": {
        "type": "Point",
        "coordinates": [
          -54.895163139153404,
          -30.45039345042118
        ]
      }
    },
    {
      "type": "Feature",
      "properties": {
        "norad_id": 34671,
        "name": "COSMOS 2251 DEB",
        "group": "cosmos-2251-debris",
        "lat": -70.96122599475208,
        "lon": 50.346058203737726,
        "alt_km": 677.2544406059824,
        "timestamp": "2025-12-27T03:58:44.541735+00:00",
        "meta_object_name": "COSMOS 2251 DEB",
        "meta_object_id": "1993-036XR",
        "meta_epoch": "2025-12-26T17:34:24.222720",
        "meta_mean_motion": 14.67181745,
        "meta_eccentricity": 0.001033,
        "meta_inclination": 74.0276,
        "meta_ra_of_asc_node": 107.28,
        "meta_arg_of_pericenter": 189.2893,
        "meta_mean_anomaly": 321.9941,
        "meta_ephemeris_type": 0,
        "meta_classification_type": "U",
        "meta_norad_cat_id": 34671,
        "meta_element_set_no": 999,
        "meta_rev_at_epoch": 88502,
        "meta_bstar": 0.0017995,
        "meta_mean_motion_dot": 0.00010118,
        "meta_mean_motion_ddot": 0,
        "tle_line1": "1 34671U 93036XR  25360.73222480  .00010118  00000+0  17995-2 0  9999",
        "tle_line2": "2 34671  74.0276 107.2800 0010330 189.2893 321.9941 14.67181745885020"
      },
      "geometry": {
        "type": "Point",
        "coordinates": [
          50.346058203737726,
          -70.96122599475208
        ]
      }
    },
    {
      "type": "Feature",
      "properties": {
        "norad_id": 34672,
        "name": "COSMOS 2251 DEB",
        "group": "cosmos-2251-debris",
        "lat": -47.56503474645524,
        "lon": -99.16090559276658,
        "alt_km": 763.0590709572789,
        "timestamp": "2025-12-27T03:58:44.541745+00:00",
        "meta_object_name": "COSMOS 2251 DEB",
        "meta_object_id": "1993-036XS",
        "meta_epoch": "2025-12-23T01:39:52.431840",
        "meta_mean_motion": 14.36424251,
        "meta_eccentricity": 0.00243004,
        "meta_inclination": 74.0343,
        "meta_ra_of_asc_node": 286.6106,
        "meta_arg_of_pericenter": 356.389,
        "meta_mean_anomaly": 18.9966,
        "meta_ephemeris_type": 0,
        "meta_classification_type": "U",
        "meta_norad_cat_id": 34672,
        "meta_element_set_no": 999,
        "meta_rev_at_epoch": 65326,
        "meta_bstar": 0.00025150328,
        "meta_mean_motion_dot": 7.13e-06,
        "meta_mean_motion_ddot": 0,
        "tle_line1": "1 34672U 93036XS  25357.06935685  .00000713  00000+0  25150-3 0  9993",
        "tle_line2": "2 34672  74.0343 286.6106 0024300 356.3890  18.9966 14.36424251653260"
      },
      "geometry": {
        "type": "Point",
        "coordinates": [
          -99.16090559276658,
          -47.56503474645524
        ]
      }
    },
    {
      "type": "Feature",
      "properties": {
        "norad_id": 34678,
        "name": "COSMOS 2251 DEB",
        "group": "cosmos-2251-debris",
        "lat": 15.681614883499593,
        "lon": 154.85598069787184,
        "alt_km": 805.3620278668213,
        "timestamp": "2025-12-27T03:58:44.541755+00:00",
        "meta_object_name": "COSMOS 2251 DEB",
        "meta_object_id": "1993-036XY",
        "meta_epoch": "2025-12-26T17:23:59.744256",
        "meta_mean_motion": 14.30067508,
        "meta_eccentricity": 0.0024859,
        "meta_inclination": 74.0379,
        "meta_ra_of_asc_node": 340.2658,
        "meta_arg_of_pericenter": 25.1547,
        "meta_mean_anomaly": 29.805,
        "meta_ephemeris_type": 0,
        "meta_classification_type": "U",
        "meta_norad_cat_id": 34678,
        "meta_element_set_no": 999,
        "meta_rev_at_epoch": 87579,
        "meta_bstar": 3.9505e-05,
        "meta_mean_motion_dot": 7.7e-07,
        "meta_mean_motion_ddot": 0,
        "tle_line1": "1 34678U 93036XY  25360.72499704  .00000077  00000+0  39505-4 0  9996",
        "tle_line2": "2 34678  74.0379 340.2658 0024859  25.1547  29.8050 14.30067508875794"
      },
      "geometry": {
        "type": "Point",
        "coordinates": [
          154.85598069787184,
          15.681614883499593
        ]
      }
    },
    {
      "type": "Feature",
      "properties": {
        "norad_id": 34680,
        "name": "COSMOS 2251 DEB",
        "group": "cosmos-2251-debris",
        "lat": -51.755234085743204,
        "lon": -56.40307532430755,
        "alt_km": 693.5272963850466,
        "timestamp": "2025-12-27T03:58:44.541765+00:00",
        "meta_object_name": "COSMOS 2251 DEB",
        "meta_object_id": "1993-036YA",
        "meta_epoch": "2025-12-26T15:42:39.280320",
        "meta_mean_motion": 14.60769199,
        "meta_eccentricity": 0.0006141,
        "meta_inclination": 74.0436,
        "meta_ra_of_asc_node": 103.2882,
        "meta_arg_of_pericenter": 205.4057,
        "meta_mean_anomaly": 222.2258,
        "meta_ephemeris_type": 0,
        "meta_classification_type": "U",
        "meta_norad_cat_id": 34680,
        "meta_element_set_no": 999,
        "meta_rev_at_epoch": 88531,
        "meta_bstar": 0.0011906,
        "meta_mean_motion_dot": 5.787e-05,
        "meta_mean_motion_ddot": 0,
        "tle_line1": "1 34680U 93036YA  25360.65462130  .00005787  00000+0  11906-2 0  9990",
        "tle_line2": "2 34680  74.0436 103.2882 0006141 205.4057 222.2258 14.60769199885316"
      },
      "geometry": {
        "type": "Point",
        "coordinates": [
          -56.40307532430755,
          -51.755234085743204
        ]
      }
    },
    {
      "type": "Feature",
      "properties": {
        "norad_id": 34681,
        "name": "COSMOS 2251 DEB",
        "group": "cosmos-2251-debris",
        "lat": -18.897198601106755,
        "lon": 87.48969642388295,
        "alt_km": 631.0048682711995,
        "timestamp": "2025-12-27T03:58:44.541774+00:00",
        "meta_object_name": "COSMOS 2251 DEB",
        "meta_object_id": "1993-036YB",
        "meta_epoch": "2025-12-26T19:17:32.518176",
        "meta_mean_motion": 14.83527031,
        "meta_eccentricity": 0.0025668,
        "meta_inclination": 74.0625,
        "meta_ra_of_asc_node": 262.5914,
        "meta_arg_of_pericenter": 317.1474,
        "meta_mean_anomaly": 110.4564,
        "meta_ephemeris_type": 0,
        "meta_classification_type": "U",
        "meta_norad_cat_id": 34681,
        "meta_element_set_no": 999,
        "meta_rev_at_epoch": 89479,
        "meta_bstar": 0.0012364,
        "meta_mean_motion_dot": 0.00010217,
        "meta_mean_motion_ddot": 0,
        "tle_line1": "1 34681U 93036YB  25360.80384859  .00010217  00000+0  12364-2 0  9992",
        "tle_line2": "2 34681  74.0625 262.5914 0025668 317.1474 110.4564 14.83527031894793"
      },
      "geometry": {
        "type": "Point",
        "coordinates": [
          87.48969642388295,
          -18.897198601106755
        ]
      }
    }
  ]
}